NORAD_CAT_ID,OBJECT_NAME,OBJECT_TYPE,EPOCH,MEAN_MOTION,ECCENTRICITY,INCLINATION,RA_OF_ASC_NODE,ARG_OF_PERICENTER,MEAN_ANOMALY,BSTAR,MEAN_MOTION_DOT,MEAN_MOTION_DDOT,TLE_LINE0,TLE_LINE1,TLE_LINE2,SEMIMAJOR_AXIS,PERIOD,APOGEE,PERIGEE,DECAYED
53997.0,STARLINK-5130,PAYLOAD,2024-03-06 05:45:17,15.08834429,0.0001374,53.2156,256.9335,81.5181,278.5966,-1.8674e-05,-5.85e-06,0.0,0 STARLINK-5130,1 53997U 22125AK  24066.23978228 -.00000585  00000-0 -18674-4 0  9994,2 53997  53.2156 256.9335 0001374  81.5181 278.5966 15.08834429 78876,6917.897,95.438,540.713,538.812,0.0
53997.0,STARLINK-5130,PAYLOAD,2024-03-07 11:57:37,15.08832417,0.0001345,53.2151,251.2828,86.5047,273.6099,0.00017691,2.528e-05,0.0,0 STARLINK-5130,1 53997U 22125AK  24067.49834838  .00002528  00000-0  17691-3 0  9995,2 53997  53.2151 251.2828 0001345  86.5047 273.6099 15.08832417 79060,6917.904,95.438,540.699,538.838,0.0
53997.0,STARLINK-5130,PAYLOAD,2024-03-08 05:26:51,15.08847828,0.0001344,53.2144,248.0119,86.9599,273.1546,0.00038737,5.884e-05,0.0,0 STARLINK-5130,1 53997U 22125AK  24068.22698430  .00005884  00000-0  38737-3 0  9995,2 53997  53.2144 248.0119 0001344  86.9599 273.1546 15.08847828 79248,6917.856,95.437,540.651,538.792,0.0
53997.0,STARLINK-5130,PAYLOAD,2024-03-08 18:09:56,15.08845933,0.0001508,53.2149,245.633,90.3066,269.8098,0.00027983,4.169e-05,0.0,0 STARLINK-5130,1 53997U 22125AK  24068.75690560  .00004169  00000-0  27983-3 0  9995,2 53997  53.2149 245.6330 0001508  90.3066 269.8098 15.08845933 79329,6917.862,95.437,540.77,538.684,0.0
53997.0,STARLINK-5130,PAYLOAD,2024-03-08 21:20:42,15.08845089,0.0001473,53.2151,245.0385,90.856,269.2601,0.00023984,3.532e-05,0.0,0 STARLINK-5130,1 53997U 22125AK  24068.88938526  .00003532  00000-0  23984-3 0  9996,2 53997  53.2151 245.0385 0001473  90.8560 269.2601 15.08845089 79271,6917.865,95.437,540.749,538.711,0.0
53997.0,STARLINK-5130,PAYLOAD,2024-03-09 05:17:38,15.08849066,0.0001493,53.2152,243.5513,91.8991,268.2172,0.00032529,4.894e-05,0.0,0 STARLINK-5130,1 53997U 22125AK  24069.22058375  .00004894  00000-0  32529-3 0  9997,2 53997  53.2152 243.5513 0001493  91.8991 268.2172 15.08849066 79326,6917.853,95.437,540.751,538.685,0.0
53997.0,STARLINK-5130,PAYLOAD,2024-03-09 21:11:30,15.0884245,0.0002965,53.2155,240.5758,97.266,262.8669,0.00018684,2.687e-05,0.0,0 STARLINK-5130,1 53997U 22125AK  24069.88299164  .00002687  00000-0  18684-3 0  9996,2 53997  53.2155 240.5758 0002965  97.2660 262.8669 15.08842450 79427,6917.873,95.437,541.789,537.687,0.0
53997.0,STARLINK-5130,PAYLOAD,2024-03-10 21:02:16,15.08844589,0.0001377,53.2143,236.1174,86.7373,273.3777,9.7772e-05,1.269e-05,0.0,0 STARLINK-5130,1 53997U 22125AK  24070.87658559  .00001269  00000-0  97772-4 0  9995,2 53997  53.2143 236.1174 0001377  86.7373 273.3777 15.08844589 79575,6917.866,95.437,540.684,538.779,0.0
53997.0,STARLINK-5130,PAYLOAD,2024-03-11 03:23:49,15.08848809,0.0001414,53.2169,234.9282,86.6901,273.4253,0.00017949,2.57e-05,0.0,0 STARLINK-5130,1 53997U 22125AK  24071.14154341  .00002570  00000-0  17949-3 0  9999,2 53997  53.2169 234.9282 0001414  86.6901 273.4253 15.08848809 79688,6917.853,95.437,540.697,538.74,0.0
53997.0,STARLINK-5130,PAYLOAD,2024-03-12 09:36:09,15.08838128,0.0001601,53.2135,229.278,82.9277,277.1897,7.651e-05,9.3e-06,0.0,0 STARLINK-5130,1 53997U 22125AK  24072.40011107  .00000930  00000-0  76510-4 0  9999,2 53997  53.2135 229.2780 0001601  82.9277 277.1897 15.08838128 79873,6917.886,95.438,540.859,538.644,0.0
53997.0,STARLINK-5130,PAYLOAD,2024-03-12 17:33:05,15.08841036,0.0001229,53.2149,227.7912,83.825,276.2882,4.0581e-05,3.58e-06,0.0,0 STARLINK-5130,1 53997U 22125AK  24072.73130993  .00000358  00000-0  40581-4 0  9993,2 53997  53.2149 227.7912 0001229  83.8250 276.2882 15.08841036 79859,6917.877,95.437,540.592,538.892,0.0
53997.0,STARLINK-5130,PAYLOAD,2024-03-13 09:26:56,15.08841485,0.0002324,53.2156,224.8175,84.924,275.2017,2.6683e-05,1.36e-06,0.0,0 STARLINK-5130,1 53997U 22125AK  24073.39371184  .00000136  00000-0  26683-4 0  9996,2 53997  53.2156 224.8175 0002324  84.9240 275.2017 15.08841485 79952,6917.876,95.437,541.349,538.133,0.0
53997.0,STARLINK-5130,PAYLOAD,2024-03-15 09:08:30,15.08844752,0.0002287,53.218,215.8985,89.928,270.1975,0.00018016,2.581e-05,0.0,0 STARLINK-5130,1 53997U 22125AK  24075.38091350  .00002581  00000-0  18016-3 0  9997,2 53997  53.2180 215.8985 0002287  89.9280 270.1975 15.08844752 80325,6917.866,95.437,541.313,538.149,0.0
53997.0,STARLINK-5130,PAYLOAD,2024-03-16 12:10:04,15.08839648,0.0001687,53.214,210.8415,85.8346,274.2839,9.4867e-05,1.222e-05,0.0,0 STARLINK-5130,1 53997U 22125AK  24076.50699565  .00001222  00000-0  94867-4 0  9994,2 53997  53.2140 210.8415 0001687  85.8346 274.2839 15.08839648 80495,6917.881,95.438,540.914,538.579,0.0
53997.0,STARLINK-5130,PAYLOAD,2024-03-16 13:45:27,15.08839103,0.0001477,53.2138,210.5442,86.6802,273.4359,7.0341e-05,8.32e-06,0.0,0 STARLINK-5130,1 53997U 22125AK  24076.57323605  .00000832  00000-0  70341-4 0  9997,2 53997  53.2138 210.5442 0001477  86.6802 273.4359 15.08839103 80430,6917.883,95.438,540.77,538.726,0.0
53997.0,STARLINK-5130,PAYLOAD,2024-03-16 15:20:50,15.08838219,0.0001363,53.2155,210.248,89.1754,270.9395,6.0165e-05,6.7e-06,0.0,0 STARLINK-5130,1 53997U 22125AK  24076.63947660  .00000670  00000-0  60165-4 0  9990,2 53997  53.2155 210.2480 0001363  89.1754 270.9395 15.08838219 80446,6917.886,95.438,540.694,538.808,0.0
53997.0,STARLINK-5130,PAYLOAD,2024-03-17 13:36:14,15.08839945,0.0001343,53.2161,206.0842,100.1291,259.9853,0.00012537,1.708e-05,0.0,0 STARLINK-5130,1 53997U 22125AK  24077.56683617  .00001708  00000-0  12537-3 0  9994,2 53997  53.2161 206.0842 0001343 100.1291 259.9853 15.08839945 80584,6917.881,95.438,540.675,538.816,0.0
53997.0,STARLINK-5130,PAYLOAD,2024-03-17 18:22:23,15.08842659,0.0001317,53.2158,205.19,98.9527,261.1614,0.00013756,1.902e-05,0.0,0 STARLINK-5130,1 53997U 22125AK  24077.76555461  .00001902  00000-0  13756-3 0  9991,2 53997  53.2158 205.1900 0001317  98.9527 261.1614 15.08842659 80689,6917.872,95.437,540.648,538.826,0.0
53997.0,STARLINK-5130,PAYLOAD,2024-03-18 11:51:38,15.08839991,0.0001328,53.2171,201.9178,97.1474,262.9669,0.00012696,1.733e-05,0.0,0 STARLINK-5130,1 53997U 22125AK  24078.49419530  .00001733  00000-0  12696-3 0  9992,2 53997  53.2171 201.9178 0001328  97.1474 262.9669 15.08839991 80728,6917.88,95.438,540.664,538.827,0.0
53997.0,STARLINK-5130,PAYLOAD,2024-03-19 11:42:25,15.08842322,0.0001324,53.2167,197.459,89.6844,270.43,8.3189e-05,1.036e-05,0.0,0 STARLINK-5130,1 53997U 22125AK  24079.48779593  .00001036  00000-0  83189-4 0  9992,2 53997  53.2167 197.4590 0001324  89.6844 270.4300 15.08842322 80877,6917.873,95.437,540.654,538.822,0.0
53997.0,STARLINK-5130,PAYLOAD,2024-03-19 13:17:48,15.08843288,0.0001341,53.2165,197.1617,86.4748,273.6398,8.8736e-05,1.125e-05,0.0,0 STARLINK-5130,1 53997U 22125AK  24079.55403502  .00001125  00000-0  88736-4 0  9996,2 53997  53.2165 197.1617 0001341  86.4748 273.6398 15.08843288 80952,6917.87,95.437,540.663,538.808,0.0
53997.0,STARLINK-5130,PAYLOAD,2024-03-20 13:08:36,15.0883247,0.0001233,53.2159,192.7023,95.7845,264.3287,-4.7456e-05,-1.043e-05,0.0,0 STARLINK-5130,1 53997U 22125AK  24080.54764099 -.00001043  00000-0 -47456-4 0  9993,2 53997  53.2159 192.7023 0001233  95.7845 264.3287 15.08832470 81033,6917.903,95.438,540.621,538.915,0.0
53997.0,STARLINK-5130,PAYLOAD,2024-03-21 14:34:46,15.08841825,0.0001464,53.2165,187.9451,88.0225,272.0935,0.00017873,2.558e-05,0.0,0 STARLINK-5130,1 53997U 22125AK  24081.60748215  .00002558  00000-0  17873-3 0  9992,2 53997  53.2165 187.9451 0001464  88.0225 272.0935 15.08841825 81191,6917.875,95.437,540.753,538.727,0.0
53997.0,STARLINK-5130,PAYLOAD,2024-03-21 16:10:08,15.08854445,0.0001399,53.216,187.6471,115.7386,244.375,0.00032379,4.871e-05,0.0,0 STARLINK-5130,1 53997U 22125AK  24081.67371407  .00004871  00000-0  32379-3 0  9992,2 53997  53.2160 187.6471 0001399 115.7386 244.3750 15.08854445 81276,6917.836,95.437,540.669,538.733,0.0
53997.0,STARLINK-5130,PAYLOAD,2024-03-22 12:50:09,15.08851766,0.0001605,53.2166,183.7777,115.1103,245.0056,0.00029813,4.461e-05,0.0,0 STARLINK-5130,1 53997U 22125AK  24082.53483325  .00004461  00000-0  29813-3 0  9995,2 53997  53.2166 183.7777 0001605 115.1103 245.0056 15.08851766 81404,6917.844,95.437,540.82,538.599,0.0
53997.0,STARLINK-5130,PAYLOAD,2024-03-22 14:25:32,15.08851242,0.0001379,53.2162,183.4827,85.1864,274.9285,0.00030544,4.578e-05,0.0,0 STARLINK-5130,1 53997U 22125AK  24082.60107517  .00004578  00000-0  30544-3 0  9991,2 53997  53.2162 183.4827 0001379  85.1864 274.9285 15.08851242 81348,6917.846,95.437,540.665,538.757,0.0
53997.0,STARLINK-5130,PAYLOAD,2024-03-23 12:40:57,15.08840704,0.0001567,53.2165,179.317,121.0798,239.0348,-0.00010613,-1.977e-05,0.0,0 STARLINK-5130,1 53997U 22125AK  24083.52844077 -.00001977  00000-0 -10613-3 0  9999,2 53997  53.2165 179.3170 0001567 121.0798 239.0348 15.08840704 81557,6917.878,95.438,540.827,538.659,0.0
53997.0,STARLINK-5130,PAYLOAD,2024-03-24 12:31:44,15.08845632,0.0001674,53.2162,174.8587,84.6037,275.5147,0.00029236,4.369e-05,0.0,0 STARLINK-5130,1 53997U 22125AK  24084.52204549  .00004369  00000-0  29236-3 0  9991,2 53997  53.2162 174.8587 0001674  84.6037 275.5147 15.08845632 81631,6917.863,95.437,540.886,538.57,0.0
53997.0,STARLINK-5130,PAYLOAD,2024-03-25 12:22:32,15.08823924,0.0001495,53.2157,170.3985,63.8477,296.2669,-1.0103e-05,-4.49e-06,0.0,0 STARLINK-5130,1 53997U 22125AK  24085.51565918 -.00000449  00000-0 -10103-4 0  9992,2 53997  53.2157 170.3985 0001495  63.8477 296.2669 15.08823924 81859,6917.93,95.439,540.829,538.76,0.0
53997.0,STARLINK-5130,PAYLOAD,2024-03-26 12:13:20,15.08834888,0.0001521,53.2158,165.9407,53.7272,306.386,0.00063227,9.788e-05,0.0,0 STARLINK-5130,1 53997U 22125AK  24086.50926603  .00009788  00000-0  63227-3 0  9991,2 53997  53.2158 165.9407 0001521  53.7272 306.3860 15.08834888 82005,6917.896,95.438,540.813,538.709,0.0
